{
  "type": "FeatureCollection",
  "features": [
    {
      "type": "Feature",
      "properties": {
        "norad_id": 33844,
        "name": "COSMOS 2251 DEB",
        "group": "cosmos-2251-debris",
        "lat": -71.82736507002414,
        "lon": -26.195769454831325,
        "alt_km": 809.6371238836073,
        "timestamp": "2025-12-22T20:43:46.240981+00:00",
        "meta_object_name": "COSMOS 2251 DEB",
        "meta_object_id": "1993-036CM",
        "meta_epoch": "2025-12-22T13:17:13.009920",
        "meta_mean_motion": 14.33734825,
        "meta_eccentricity": 0.00471375,
        "meta_inclination": 74.0665,
        "meta_ra_of_asc_node": 34.8617,
        "meta_arg_of_pericenter": 53.6387,
        "meta_mean_anomaly": 65.6499,
        "meta_ephemeris_type": 0,
        "meta_classification_type": "U",
        "meta_norad_cat_id": 33844,
        "meta_element_set_no": 999,
        "meta_rev_at_epoch": 87866,
        "meta_bstar": 0.00030951888,
        "meta_mean_motion_dot": 8.45e-06,
        "meta_mean_motion_ddot": 0,
        "tle_line1": "1 33844U 93036CM  25356.55362280  .00000845  00000+0  30952-3 0  9993",
        "tle_line2": "2 33844  74.0665  34.8617 0047137  53.6387  65.6499 14.33734825878669"
      },
      "geometry": {
        "type": "Point",
        "coordinates": [
          -26.195769454831325,
          -71.82736507002414
        ]
      }
    },
    {
      "type": "Feature",
      "properties": {
        "norad_id": 33848,
        "name": "COSMOS 2251 DEB",
        "group": "cosmos-2251-debris",
        "lat": 59.26322557456502,
        "lon": 130.01927518708763,
        "alt_km": 736.0429248743694,
        "timestamp": "2025-12-22T20:43:46.240991+00:00",
        "meta_object_name": "COSMOS 2251 DEB",
        "meta_object_id": "1993-036CR",
        "meta_epoch": "2025-12-22T09:06:02.087712",
        "meta_mean_motion": 14.44124246,
        "meta_eccentricity": 0.00417102,
        "meta_inclination": 74.0318,
        "meta_ra_of_asc_node": 339.706,
        "meta_arg_of_pericenter": 32.6758,
        "meta_mean_anomaly": 85.3864,
        "meta_ephemeris_type": 0,
        "meta_classification_type": "U",
        "meta_norad_cat_id": 33848,
        "meta_element_set_no": 999,
        "meta_rev_at_epoch": 87970,
        "meta_bstar": 0.0010952854,
        "meta_mean_motion_dot": 3.768e-05,
        "meta_mean_motion_ddot": 0,
        "tle_line1": "1 33848U 93036CR  25356.37919083  .00003768  00000+0  10953-2 0  9991",
        "tle_line2": "2 33848  74.0318 339.7060 0041710  32.6758  85.3864 14.44124246879700"
      },
      "geometry": {
        "type": "Point",
        "coordinates": [
          130.01927518708763,
          59.26322557456502
        ]
      }
    },
    {
      "type": "Feature",
      "properties": {
        "norad_id": 33892,
        "name": "COSMOS 2251 DEB",
        "group": "cosmos-2251-debris",
        "lat": 4.0954313156723465,
        "lon": 84.7816309663018,
        "alt_km": 840.7861878167705,
        "timestamp": "2025-12-22T20:43:46.241001+00:00",
        "meta_object_name": "COSMOS 2251 DEB",
        "meta_object_id": "1993-036CV",
        "meta_epoch": "2025-12-22T07:28:39.074304",
        "meta_mean_motion": 14.23368996,
        "meta_eccentricity": 0.01122855,
        "meta_inclination": 73.8025,
        "meta_ra_of_asc_node": 84.5961,
        "meta_arg_of_pericenter": 113.9582,
        "meta_mean_anomaly": 303.3766,
        "meta_ephemeris_type": 0,
        "meta_classification_type": "U",
        "meta_norad_cat_id": 33892,
        "meta_element_set_no": 999,
        "meta_rev_at_epoch": 87091,
        "meta_bstar": 0.0005803238,
        "meta_mean_motion_dot": 1.379e-05,
        "meta_mean_motion_ddot": 0,
        "tle_line1": "1 33892U 93036CV  25356.31156336  .00001379  00000+0  58032-3 0  9995",
        "tle_line2": "2 33892  73.8025  84.5961 0112285 113.9582 303.3766 14.23368996870917"
      },
      "geometry": {
        "type": "Point",
        "coordinates": [
          84.7816309663018,
          4.0954313156723465
        ]
      }
    },
    {
      "type": "Feature",
      "properties": {
        "norad_id": 33894,
        "name": "COSMOS 2251 DEB",
        "group": "cosmos-2251-debris",
        "lat": 24.458287951983124,
        "lon": 145.79918603094163,
        "alt_km": 1207.7243413076449,
        "timestamp": "2025-12-22T20:43:46.241012+00:00",
        "meta_object_name": "COSMOS 2251 DEB",
        "meta_object_id": "1993-036CX",
        "meta_epoch": "2025-12-21T16:37:48.062496",
        "meta_mean_motion": 13.21322128,
        "meta_eccentricity": 0.05789659,
        "meta_inclination": 73.7665,
        "meta_ra_of_asc_node": 335.2246,
        "meta_arg_of_pericenter": 253.4651,
        "meta_mean_anomaly": 100.2107,
        "meta_ephemeris_type": 0,
        "meta_classification_type": "U",
        "meta_norad_cat_id": 33894,
        "meta_element_set_no": 999,
        "meta_rev_at_epoch": 80826,
        "meta_bstar": 0.00065478931,
        "meta_mean_motion_dot": 6.27e-06,
        "meta_mean_motion_ddot": 0,
        "tle_line1": "1 33894U 93036CX  25355.69291739  .00000627  00000+0  65479-3 0  9992",
        "tle_line2": "2 33894  73.7665 335.2246 0578965 253.4651 100.2107 13.21322128808264"
      },
      "geometry": {
        "type": "Point",
        "coordinates": [
          145.79918603094163,
          24.458287951983124
        ]
      }
    },
    {
      "type": "Feature",
      "properties": {
        "norad_id": 33896,
        "name": "COSMOS 2251 DEB",
        "group": "cosmos-2251-debris",
        "lat": -72.30164066365529,
        "lon": 72.37855240883515,
        "alt_km": 760.3268101126805,
        "timestamp": "2025-12-22T20:43:46.241022+00:00",
        "meta_object_name": "COSMOS 2251 DEB",
        "meta_object_id": "1993-036CZ",
        "meta_epoch": "2025-12-22T03:21:01.521216",
        "meta_mean_motion": 14.19058881,
        "meta_eccentricity": 0.0126973,
        "meta_inclination": 73.7663,
        "meta_ra_of_asc_node": 139.6176,
        "meta_arg_of_pericenter": 313.8005,
        "meta_mean_anomaly": 226.3125,
        "meta_ephemeris_type": 0,
        "meta_classification_type": "U",
        "meta_norad_cat_id": 33896,
        "meta_element_set_no": 999,
        "meta_rev_at_epoch": 86873,
        "meta_bstar": 0.00044902752,
        "meta_mean_motion_dot": 9.89e-06,
        "meta_mean_motion_ddot": 0,
        "tle_line1": "1 33896U 93036CZ  25356.13960094  .00000989  00000+0  44903-3 0  9991",
        "tle_line2": "2 33896  73.7663 139.6176 0126973 313.8005 226.3125 14.19058881868732"
      },
      "geometry": {
        "type": "Point",
        "coordinates": [
          72.37855240883515,
          -72.30164066365529
        ]
      }
    },
    {
      "type": "Feature",
      "properties": {
        "norad_id": 33899,
        "name": "COSMOS 2251 DEB",
        "group": "cosmos-2251-debris",
        "lat": 31.018061708219324,
        "lon": 76.28914233948451,
        "alt_km": 689.3504116413742,
        "timestamp": "2025-12-22T20:43:46.241031+00:00",
        "meta_object_name": "COSMOS 2251 DEB",
        "meta_object_id": "1993-036DC",
        "meta_epoch": "2025-12-22T10:47:48.630624",
        "meta_mean_motion": 14.61267079,
        "meta_eccentricity": 0.00560625,
        "meta_inclination": 74.0534,
        "meta_ra_of_asc_node": 67.1796,
        "meta_arg_of_pericenter": 127.0658,
        "meta_mean_anomaly": 249.8301,
        "meta_ephemeris_type": 0,
        "meta_classification_type": "U",
        "meta_norad_cat_id": 33899,
        "meta_element_set_no": 999,
        "meta_rev_at_epoch": 88981,
        "meta_bstar": 0.00077291856,
        "meta_mean_motion_dot": 3.871e-05,
        "meta_mean_motion_ddot": 0,
        "tle_line1": "1 33899U 93036DC  25356.44986841  .00003871  00000+0  77292-3 0  9996",
        "tle_line2": "2 33899  74.0534  67.1796 0056062 127.0658 249.8301 14.61267079889815"
      },
      "geometry": {
        "type": "Point",
        "coordinates": [
          76.28914233948451,
          31.018061708219324
        ]
      }
    },
    {
      "type": "Feature",
      "properties": {
        "norad_id": 33900,
        "name": "COSMOS 2251 DEB",
        "group": "cosmos-2251-debris",
        "lat": -34.494234554989525,
        "lon": -30.7841643237393,
        "alt_km": 736.1203766847675,
        "timestamp": "2025-12-22T20:43:46.241041+00:00",
        "meta_object_name": "COSMOS 2251 DEB",
        "meta_object_id": "1993-036DD",
        "meta_epoch": "2025-12-22T14:51:53.751168",
        "meta_mean_motion": 14.58379559,
        "meta_eccentricity": 0.00464233,
        "meta_inclination": 74.0183,
        "meta_ra_of_asc_node": 341.0384,
        "meta_arg_of_pericenter": 130.2552,
        "meta_mean_anomaly": 351.4893,
        "meta_ephemeris_type": 0,
        "meta_classification_type": "U",
        "meta_norad_cat_id": 33900,
        "meta_element_set_no": 999,
        "meta_rev_at_epoch": 89180,
        "meta_bstar": 0.00033104977,
        "meta_mean_motion_dot": 1.526e-05,
        "meta_mean_motion_ddot": 0,
        "tle_line1": "1 33900U 93036DD  25356.61937212  .00001526  00000+0  33105-3 0  9996",
        "tle_line2": "2 33900  74.0183 341.0384 0046423 130.2552 351.4893 14.58379559891805"
      },
      "geometry": {
        "type": "Point",
        "coordinates": [
          -30.7841643237393,
          -34.494234554989525
        ]
      }
    }
  ]
}